NORAD_CAT_ID,OBJECT_NAME,OBJECT_TYPE,EPOCH,MEAN_MOTION,ECCENTRICITY,INCLINATION,RA_OF_ASC_NODE,ARG_OF_PERICENTER,MEAN_ANOMALY,BSTAR,MEAN_MOTION_DOT,MEAN_MOTION_DDOT,TLE_LINE0,TLE_LINE1,TLE_LINE2,SEMIMAJOR_AXIS,PERIOD,APOGEE,PERIGEE,DECAYED
51464.0,STARLINK-3189,PAYLOAD,2023-09-01 14:49:55,15.08799303,0.0004616,53.2096,89.485,95.2873,264.8646,0.0010301,0.00016128,0.0,0 STARLINK-3189,1 51464U 22010J   23244.61799973  .00016128  00000-0  10301-2 0  9996,2 51464  53.2096  89.4850 0004616  95.2873 264.8646 15.08799303 88379,6918.005,95.44,543.063,536.676,0.0
51464.0,STARLINK-3189,PAYLOAD,2023-09-02 13:05:20,15.08835482,0.000195,53.2142,85.3193,85.4195,274.7019,6.1097e-05,6.84e-06,0.0,0 STARLINK-3189,1 51464U 22010J   23245.54537752  .00000684  00000-0  61097-4 0  9994,2 51464  53.2142  85.3193 0001950  85.4195 274.7019 15.08835482 88566,6917.894,95.438,541.108,538.41,0.0
51464.0,STARLINK-3189,PAYLOAD,2023-09-02 19:26:53,15.08835572,0.0001429,53.2176,84.1316,91.235,268.8806,3.7476e-05,3.08e-06,0.0,0 STARLINK-3189,1 51464U 22010J   23245.81033788  .00000308  00000-0  37476-4 0  9991,2 51464  53.2176  84.1316 0001429  91.2350 268.8806 15.08835572 88609,6917.894,95.438,540.747,538.77,0.0
51464.0,STARLINK-3189,PAYLOAD,2023-09-03 06:34:34,15.08839669,0.0001415,53.218,82.0481,86.8506,273.2648,6.6193e-05,7.66e-06,0.0,0 STARLINK-3189,1 51464U 22010J   23246.27401554  .00000766  00000-0  66193-4 0  9998,2 51464  53.2180  82.0481 0001415  86.8506 273.2648 15.08839669 88674,6917.881,95.438,540.725,538.768,0.0
51464.0,STARLINK-3189,PAYLOAD,2023-09-03 19:17:39,15.08847908,0.0001462,53.2177,79.6694,86.6733,273.4427,0.00010756,1.425e-05,0.0,0 STARLINK-3189,1 51464U 22010J   23246.80392898  .00001425  00000-0  10756-3 0  9993,2 51464  53.2177  79.6694 0001462  86.6733 273.4427 15.08847908 88706,6917.856,95.437,540.733,538.71,0.0
51464.0,STARLINK-3189,PAYLOAD,2023-09-03 22:28:25,15.08870723,0.0001559,53.2181,79.0744,97.1582,262.9588,-0.00024147,-4.132e-05,0.0,0 STARLINK-3189,1 51464U 22010J   23246.93640047 -.00004132  00000-0 -24147-3 0  9998,2 51464  53.2181  79.0744 0001559  97.1582 262.9588 15.08870723 88721,6917.786,95.436,540.73,538.573,0.0
51464.0,STARLINK-3189,PAYLOAD,2023-09-04 06:25:21,15.0883927,0.000143,53.2178,77.5875,88.9511,271.1645,0.00010888,1.445e-05,0.0,0 STARLINK-3189,1 51464U 22010J   23247.26761341  .00001445  00000-0  10888-3 0  9995,2 51464  53.2178  77.5875 0001430  88.9511 271.1645 15.08839270 88776,6917.883,95.438,540.737,538.758,0.0
51464.0,STARLINK-3189,PAYLOAD,2023-09-04 12:46:54,15.08838546,0.0001502,53.2179,76.3983,91.472,268.6444,3.1907e-05,2.2e-06,0.0,0 STARLINK-3189,1 51464U 22010J   23247.53257729  .00000220  00000-0  31907-4 0  9991,2 51464  53.2179  76.3983 0001502  91.4720 268.6444 15.08838546 88868,6917.885,95.438,540.789,538.711,0.0
51464.0,STARLINK-3189,PAYLOAD,2023-09-05 12:37:41,15.08838087,0.0001336,53.2184,71.9388,89.705,270.4095,5.3344e-05,5.61e-06,0.0,0 STARLINK-3189,1 51464U 22010J   23248.52617725  .00000561  00000-0  53344-4 0  9994,2 51464  53.2184  71.9388 0001336  89.7050 270.4095 15.08838087 88969,6917.886,95.438,540.675,538.827,0.0
51464.0,STARLINK-3189,PAYLOAD,2023-09-06 12:28:28,15.08838477,0.0001373,53.2178,67.4793,89.5262,270.5887,9.6111e-05,1.242e-05,0.0,0 STARLINK-3189,1 51464U 22010J   23249.51977678  .00001242  00000-0  96111-4 0  9996,2 51464  53.2178  67.4793 0001373  89.5262 270.5887 15.08838477 89162,6917.885,95.438,540.7,538.8,0.0
51464.0,STARLINK-3189,PAYLOAD,2023-09-06 22:00:47,15.08845631,0.0001371,53.2179,65.695,89.3674,270.7476,0.00012529,1.707e-05,0.0,0 STARLINK-3189,1 51464U 22010J   23249.91721160  .00001707  00000-0  12529-3 0  9999,2 51464  53.2179  65.6950 0001371  89.3674 270.7476 15.08845631 89178,6917.863,95.437,540.677,538.78,0.0
51464.0,STARLINK-3189,PAYLOAD,2023-09-07 10:43:52,15.08841734,0.0001593,53.2201,63.3195,92.4286,267.6889,8.1675e-05,1.012e-05,0.0,0 STARLINK-3189,1 51464U 22010J   23250.44713583  .00001012  00000-0  81675-4 0  9997,2 51464  53.2201  63.3195 0001593  92.4286 267.6889 15.08841734 89252,6917.875,95.437,540.842,538.638,0.0
51464.0,STARLINK-3189,PAYLOAD,2023-09-07 12:19:16,15.08837372,0.0001679,53.2208,63.0199,100.394,259.7242,2.2248e-05,6.6e-07,0.0,0 STARLINK-3189,1 51464U 22010J   23250.51338025  .00000066  00000-0  22248-4 0  9998,2 51464  53.2208  63.0199 0001679 100.3940 259.7242 15.08837372 89316,6917.888,95.438,540.915,538.592,0.0
51464.0,STARLINK-3189,PAYLOAD,2023-09-08 04:13:07,15.08830119,0.0001862,53.2213,60.0463,94.9393,265.1812,0.00014543,2.027e-05,0.0,0 STARLINK-3189,1 51464U 22010J   23251.17578503  .00002027  00000-0  14543-3 0  9995,2 51464  53.2213  60.0463 0001862  94.9393 265.1812 15.08830119 89414,6917.911,95.438,541.064,538.487,0.0
51464.0,STARLINK-3189,PAYLOAD,2023-09-08 18:31:35,15.08838691,0.0001603,53.219,57.3712,85.8835,274.234,4.7986e-05,4.76e-06,0.0,0 STARLINK-3189,1 51464U 22010J   23251.77194170  .00000476  00000-0  47986-4 0  9999,2 51464  53.2190  57.3712 0001603  85.8835 274.2340 15.08838691 89451,6917.884,95.438,540.858,538.64,0.0
51464.0,STARLINK-3189,PAYLOAD,2023-09-08 20:06:58,15.08839816,0.0001646,53.2189,57.0727,81.4001,278.7178,5.7458e-05,6.27e-06,0.0,0 STARLINK-3189,1 51464U 22010J   23251.83818124  .00000627  00000-0  57458-4 0  9991,2 51464  53.2189  57.0727 0001646  81.4001 278.7178 15.08839816 89511,6917.881,95.438,540.885,538.607,0.0
51464.0,STARLINK-3189,PAYLOAD,2023-09-09 04:03:54,15.08832336,9.7e-05,53.2192,55.5795,108.3868,251.723,0.00012836,1.755e-05,0.0,0 STARLINK-3189,1 51464U 22010J   23252.16938100  .00001755  00000-0  12836-3 0  9998,2 51464  53.2192  55.5795 0000970 108.3868 251.7230 15.08832336 89567,6917.904,95.438,540.44,539.098,0.0
51464.0,STARLINK-3189,PAYLOAD,2023-09-09 19:57:45,15.08849229,0.0001292,53.2185,52.6099,84.7944,275.3195,0.00017491,2.498e-05,0.0,0 STARLINK-3189,1 51464U 22010J   23252.83177434  .00002498  00000-0  17491-3 0  9994,2 51464  53.2185  52.6099 0001292  84.7944 275.3195 15.08849229 89611,6917.852,95.437,540.611,538.823,0.0
51464.0,STARLINK-3189,PAYLOAD,2023-09-10 03:54:41,15.08838719,0.0001192,53.2185,51.1224,87.7156,272.3972,0.00016416,2.326e-05,0.0,0 STARLINK-3189,1 51464U 22010J   23253.16298029  .00002326  00000-0  16416-3 0  9991,2 51464  53.2185  51.1224 0001192  87.7156 272.3972 15.08838719 89669,6917.884,95.438,540.574,538.925,0.0
51464.0,STARLINK-3189,PAYLOAD,2023-09-11 03:45:28,15.08841449,0.0001202,53.2191,46.6605,87.5644,272.5486,6.025e-05,6.71e-06,0.0,0 STARLINK-3189,1 51464U 22010J   23254.15658151  .00000671  00000-0  60250-4 0  9994,2 51464  53.2191  46.6605 0001202  87.5644 272.5486 15.08841449 89868,6917.876,95.437,540.572,538.909,0.0
51464.0,STARLINK-3189,PAYLOAD,2023-09-11 16:28:33,15.08847,0.000116,53.2183,44.283,85.5754,274.5371,2.0428e-05,3.7e-07,0.0,0 STARLINK-3189,1 51464U 22010J   23254.68649947  .00000037  00000-0  20428-4 0  9994,2 51464  53.2183  44.2830 0001160  85.5754 274.5371 15.08847000 89893,6917.859,95.437,540.526,538.922,0.0
51464.0,STARLINK-3189,PAYLOAD,2023-09-11 21:14:42,15.08854099,0.0001197,53.219,43.3904,86.3366,273.7763,7.7612e-05,9.48e-06,0.0,0 STARLINK-3189,1 51464U 22010J   23254.88521184  .00000948  00000-0  77612-4 0  9996,2 51464  53.2190  43.3904 0001197  86.3366 273.7763 15.08854099 89927,6917.837,95.437,540.53,538.874,0.0
51464.0,STARLINK-3189,PAYLOAD,2023-09-12 03:36:15,15.08849359,0.0001132,53.2183,42.2024,79.6047,280.5073,4.3165e-05,3.99e-06,0.0,0 STARLINK-3189,1 51464U 22010J   23255.15017584  .00000399  00000-0  43165-4 0  9997,2 51464  53.2183  42.2024 0001132  79.6047 280.5073 15.08849359 89967,6917.852,95.437,540.5,538.934,0.0
51464.0,STARLINK-3189,PAYLOAD,2023-09-12 13:08:34,15.08842883,0.0001266,53.2192,40.4185,87.2244,272.8893,9.8826e-05,1.285e-05,0.0,0 STARLINK-3189,1 51464U 22010J   23255.54761948  .00001285  00000-0  98826-4 0  9999,2 51464  53.2192  40.4185 0001266  87.2244 272.8893 15.08842883 90070,6917.872,95.437,540.612,538.861,0.0
51464.0,STARLINK-3189,PAYLOAD,2023-09-12 16:19:20,15.08847572,0.0001267,53.2192,39.8214,88.3895,271.7242,7.8636e-05,9.64e-06,0.0,0 STARLINK-3189,1 51464U 22010J   23255.68009605  .00000964  00000-0  78636-4 0  9999,2 51464  53.2192  39.8214 0001267  88.3895 271.7242 15.08847572 90098,6917.857,95.437,540.599,538.846,0.0
51464.0,STARLINK-3189,PAYLOAD,2023-09-12 21:05:28,15.08858171,0.0001221,53.2199,38.9296,88.3335,271.7798,0.00015419,2.168e-05,0.0,0 STARLINK-3189,1 51464U 22010J   23255.87880601  .00002168  00000-0  15419-3 0  9990,2 51464  53.2199  38.9296 0001221  88.3335 271.7798 15.08858171 90075,6917.825,95.436,540.535,538.845,0.0
51464.0,STARLINK-3189,PAYLOAD,2023-09-13 09:48:35,15.08842413,0.0001405,53.22,36.5504,84.3001,275.8151,0.00010273,1.347e-05,0.0,0 STARLINK-3189,1 51464U 22010J   23256.40873902  .00001347  00000-0  10273-3 0  9997,2 51464  53.2200  36.5504 0001405  84.3001 275.8151 15.08842413 90153,6917.873,95.437,540.71,538.766,0.0
51464.0,STARLINK-3189,PAYLOAD,2023-09-13 12:59:21,15.08846414,0.000124,53.2185,35.9566,88.045,272.0684,0.00015233,2.138e-05,0.0,0 STARLINK-3189,1 51464U 22010J   23256.54121590  .00002138  00000-0  15233-3 0  9991,2 51464  53.2185  35.9566 0001240  88.0450 272.0684 15.08846414 90225,6917.861,95.437,540.584,538.868,0.0
51464.0,STARLINK-3189,PAYLOAD,2023-09-13 16:10:07,15.08853245,0.0001232,53.2181,35.3626,86.4966,273.6167,0.00021613,3.155e-05,0.0,0 STARLINK-3189,1 51464U 22010J   23256.67369279  .00003155  00000-0  21613-3 0  9992,2 51464  53.2181  35.3626 0001232  86.4966 273.6167 15.08853245 90196,6917.84,95.437,540.557,538.853,0.0
51464.0,STARLINK-3189,PAYLOAD,2023-09-13 20:56:16,15.08860229,0.0001176,53.2186,34.4693,82.998,277.1145,0.00034078,5.143e-05,0.0,0 STARLINK-3189,1 51464U 22010J   23256.87240795  .00005143  00000-0  34078-3 0  9993,2 51464  53.2186  34.4693 0001176  82.9980 277.1145 15.08860229 90273,6917.819,95.436,540.497,538.87,0.0
